[{"OBJECT_NAME":"KINEIS-5B","OBJECT_ID":"2024-219E","EPOCH":"2026-03-09T22:46:51.481344","MEAN_MOTION":14.78074364,"ECCENTRICITY":0.00015209,"INCLINATION":97.9946,"RA_OF_ASC_NODE":233.4308,"ARG_OF_PERICENTER":190.4987,"MEAN_ANOMALY":169.6192,"EPHEMERIS_TYPE":0,"CLASSIFICATION_TYPE":"U","NORAD_CAT_ID":62085,"ELEMENT_SET_NO":999,"REV_AT_EPOCH":6934,"BSTAR":0.00031384185,"MEAN_MOTION_DOT":2.217e-5,"MEAN_MOTION_DDOT":0},{"OBJECT_NAME":"FENGYUN 1C DEB","OBJECT_ID":"1999-025CXY","EPOCH":"2026-03-08T03:52:40.652832","MEAN_MOTION":14.79881219,"ECCENTRICITY":0.00110174,"INCLINATION":99.1801,"RA_OF_ASC_NODE":51.208,"ARG_OF_PERICENTER":222.0126,"MEAN_ANOMALY":138.0238,"EPHEMERIS_TYPE":0,"CLASSIFICATION_TYPE":"U","NORAD_CAT_ID":32331,"ELEMENT_SET_NO":999,"REV_AT_EPOCH":61878,"BSTAR":0.008104872,"MEAN_MOTION_DOT":0.00061681,"MEAN_MOTION_DDOT":0}]
